[{"OBJECT_NAME":"STARLINK-30327","OBJECT_ID":"2023-129K","EPOCH":"2026-03-09T12:25:28.993152","MEAN_MOTION":15.26626807,"ECCENTRICITY":0.00230309,"INCLINATION":42.9974,"RA_OF_ASC_NODE":85.9834,"ARG_OF_PERICENTER":70.832,"MEAN_ANOMALY":289.5022,"EPHEMERIS_TYPE":0,"CLASSIFICATION_TYPE":"U","NORAD_CAT_ID":57707,"ELEMENT_SET_NO":999,"REV_AT_EPOCH":14090,"BSTAR":0.00029313824,"MEAN_MOTION_DOT":7.635e-5,"MEAN_MOTION_DDOT":0},{"OBJECT_NAME":"STARLINK-35577","OBJECT_ID":"2025-265Y","EPOCH":"2026-03-09T22:48:51.433056","MEAN_MOTION":15.27579076,"ECCENTRICITY":5.161e-5,"INCLINATION":42.9964,"RA_OF_ASC_NODE":276.4329,"ARG_OF_PERICENTER":50.9158,"MEAN_ANOMALY":309.1739,"EPHEMERIS_TYPE":0,"CLASSIFICATION_TYPE":"U","NORAD_CAT_ID":66538,"ELEMENT_SET_NO":999,"REV_AT_EPOCH":1715,"BSTAR":0.00089421652,"MEAN_MOTION_DOT":0.00024426,"MEAN_MOTION_DDOT":0}]
